{
    "links": {
        "self": "http://www.neowsapp.com/rest/v1/neo/3843181?api_key=iIulBulltgU6a56xZRHN4H3l9WmuAYTsLGpBGhQ2"
    },
    "id": "3843181",
    "neo_reference_id": "3843181",
    "name": "(2019 NP4)",
    "designation": "2019 NP4",
    "nasa_jpl_url": "http://ssd.jpl.nasa.gov/sbdb.cgi?sstr=3843181",
    "absolute_magnitude_h": 24.2,
    "estimated_diameter": {
        "kilometers": {
            "estimated_diameter_min": 0.0384197891,
            "estimated_diameter_max": 0.0859092601
        },
        "meters": {
            "estimated_diameter_min": 38.4197891064,
            "estimated_diameter_max": 85.9092601232
        },
        "miles": {
            "estimated_diameter_min": 0.0238729428,
            "estimated_diameter_max": 0.0533815229
        },
        "feet": {
            "estimated_diameter_min": 126.0491808919,
            "estimated_diameter_max": 281.8545369825
        }
    },
    "is_potentially_hazardous_asteroid": false,
    "close_approach_data": [
        {
            "close_approach_date": "2019-07-04",
            "close_approach_date_full": "2019-Jul-04 23:36",
            "epoch_date_close_approach": 1562283360000,
            "relative_velocity": {
                "kilometers_per_second": "9.3347936173",
                "kilometers_per_hour": "33605.2570224539",
                "miles_per_hour": "20880.9998426464"
            },
            "miss_distance": {
                "astronomical": "0.1098441995",
                "lunar": "42.7293936055",
                "kilometers": "16432458.277055065",
                "miles": "10210656.098947297"
            },
            "orbiting_body": "Earth"
        }
    ],
    "orbital_data": {
        "orbit_id": "1",
        "orbit_determination_date": "2019-07-08 19:12:02",
        "first_observation_date": "2019-07-06",
        "last_observation_date": "2019-07-08",
        "data_arc_in_days": 2,
        "observations_used": 10,
        "orbit_uncertainty": "9",
        "minimum_orbit_intersection": ".0831304",
        "jupiter_tisserand_invariant": "5.166",
        "epoch_osculation": "2458671.5",
        "eccentricity": ".1025368611317848",
        "semi_major_axis": "1.225350579645529",
        "inclination": "17.75113450672459",
        "ascending_node_longitude": "282.0179558504033",
        "orbital_period": "495.4376051423334",
        "perihelion_distance": "1.099706977422663",
        "perihelion_argument": "3.549494956595582",
        "aphelion_distance": "1.350994181868394",
        "perihelion_time": "2458668.641882499314",
        "mean_anomaly": "2.076794917397041",
        "mean_motion": ".7266303491366511",
        "equinox": "J2000",
        "orbit_class": {
            "orbit_class_type": "AMO",
            "orbit_class_description": "Near-Earth asteroid orbits similar to that of 1221 Amor",
            "orbit_class_range": "1.017 AU < q (perihelion) < 1.3 AU"
        }
    },
    "is_sentry_object": false
}